H1 CPF  1  HTS 2022  6  1 12  6521 larets           NONE
H2  0304206 5557    27944 2022 06 01  0  0  0 2022 06 06  0  0  0   180 1 1  0 0 0
H5  0.0560 
H9 
10 0 59735  69480.00000  0   -1643733.419    3667714.433   -5804637.169
10 0 59735  69660.00000  0   -1681232.951    4736604.131   -4957382.849
10 0 59735  69840.00000  0   -1631811.232    5633133.134   -3928599.791
10 0 59735  70020.00000  0   -1502166.177    6322218.257   -2755752.861
10 0 59735  70200.00000  0   -1302756.369    6776513.783   -1481723.816
10 0 59735  70380.00000  0   -1047215.243    6977575.993    -153239.436
10 0 59735  70560.00000  0    -751611.952    6916677.154    1180878.207
10 0 59735  70740.00000  0    -433595.114    6595216.586    2471571.921
10 0 59735  70920.00000  0    -111467.714    6024686.541    3671423.613
10 0 59735  71100.00000  0     196754.112    5226213.429    4736442.306
10 0 59735  71280.00000  0     474250.056    4229704.994    5627705.712
10 0 59735  71460.00000  0     706228.209    3072640.916    6312769.141
10 0 59735  71640.00000  0     880638.419    1798596.596    6766806.025
10 0 59735  71820.00000  0     988736.167     455555.591    6973455.100
10 0 59735  72000.00000  0    1025478.823    -905915.010    6925357.191
10 0 59735  72180.00000  0     989741.098   -2234561.932    6624385.807
10 0 59735  72360.00000  0     884343.081   -3480364.327    6081568.220
10 0 59735  72540.00000  0     715890.236   -4596410.641    5316693.700
10 0 59735  72720.00000  0     494435.290   -5540664.933    4357621.695
10 0 59735  72900.00000  0     232975.538   -6277575.481    3239311.126
10 0 59735  73080.00000  0     -53200.780   -6779462.504    2002576.311
10 0 59735  73260.00000  0    -347290.229   -7027610.365     692607.509
10 0 59735  73440.00000  0    -631835.097   -7013015.342    -642692.226
10 0 59735  73620.00000  0    -889626.144   -6736736.239   -1954495.359
10 0 59735  73800.00000  0   -1104596.405   -6209826.084   -3194871.405
10 0 59735  73980.00000  0   -1262662.937   -5452859.638   -4318564.752
10 0 59735  74160.00000  0   -1352473.680   -4495077.784   -5284654.987
10 0 59735  74340.00000  0   -1366021.526   -3373200.847   -6058027.441
10 0 59735  74520.00000  0   -1299098.949   -2129977.401   -6610610.308
10 0 59735  74700.00000  0   -1151575.245    -812531.391   -6922344.884
10 0 59735  74880.00000  0    -927488.479     529422.780   -6981868.039
10 0 59735  75060.00000  0    -634947.540    1845434.413   -6786901.090
10 0 59735  75240.00000  0    -285847.164    3086183.987   -6344342.980
10 0 59735  75420.00000  0     104596.384    4205316.173   -5670066.897
10 0 59735  75600.00000  0     518480.116    5161184.299   -4788410.443
10 0 59735  75780.00000  0     935996.676    5918442.785   -3731361.482
10 0 59735  75960.00000  0    1336336.934    6449425.307   -2537447.345
10 0 59735  76140.00000  0    1698674.790    6735239.403   -1250352.876
10 0 59735  76320.00000  0    2003188.013    6766517.923      82692.122
10 0 59735  76500.00000  0    2232060.448    6543773.284    1412693.169
10 0 59735  76680.00000  0    2370408.900    6077331.268    2690753.171
10 0 59735  76860.00000  0    2407086.502    5386850.227    3869930.657
10 0 59735  77040.00000  0    2335319.765    4500452.238    4907012.765
10 0 59735  77220.00000  0    2153142.526    3453507.810    5764122.738
10 0 59735  77400.00000  0    1863609.202    2287150.008    6410082.759
10 0 59735  77580.00000  0    1474788.092    1046607.516    6821505.096
10 0 59735  77760.00000  0     999533.243    -220580.926    6983584.437
10 0 59735  77940.00000  0     455048.992   -1466390.411    6890580.291
10 0 59735  78120.00000  0    -137738.679   -2644120.363    6545994.606
10 0 59735  78300.00000  0    -754985.388   -3710134.860    5962433.347
10 0 59735  78480.00000  0   -1370873.030   -4625470.333    5161157.707
10 0 59735  78660.00000  0   -1958668.276   -5357265.813    4171351.393
10 0 59735  78840.00000  0   -2491867.067   -5879979.480    3029102.396
10 0 59735  79020.00000  0   -2945371.399   -6176324.381    1776109.495
10 0 59735  79200.00000  0   -3296641.341   -6237875.809     458163.876
10 0 59735  79380.00000  0   -3526766.821   -6065324.003    -876540.192
10 0 59735  79560.00000  0   -3621404.616   -5668353.579   -2179199.954
10 0 59735  79740.00000  0   -3571531.051   -5065149.987   -3402226.338
10 0 59735  79920.00000  0   -3373969.277   -4281558.119   -4501009.645
10 0 59735  80100.00000  0   -3031665.115   -3349944.567   -5435548.865
10 0 59735  80280.00000  0   -2553705.986   -2307828.713   -6171884.622
10 0 59735  80460.00000  0   -1955086.222   -1196349.026   -6683292.282
10 0 59735  80640.00000  0   -1256228.490     -58631.447   -6951202.994
10 0 59735  80820.00000  0    -482286.121    1061872.509   -6965831.562
10 0 59735  81000.00000  0     337749.521    2123020.179   -6726514.109
10 0 59735  81180.00000  0    1172113.146    3085541.774   -6241752.580
10 0 59735  81360.00000  0    1987477.749    3914492.532   -5528958.282
10 0 59735  81540.00000  0    2750274.137    4580541.415   -4613885.463
10 0 59735  81720.00000  0    3428072.936    5061052.823   -3529764.038
10 0 59735  81900.00000  0    3990975.532    5340915.671   -2316138.854
10 0 59735  82080.00000  0    4412952.094    5413072.405   -1017442.627
10 0 59735  82260.00000  0    4673054.431    5278715.069     318650.454
10 0 59735  82440.00000  0    4756436.166    4947128.144    1643024.872
10 0 59735  82620.00000  0    4655120.389    4435184.176    2906990.080
10 0 59735  82800.00000  0    4368478.432    3766520.388    4064134.464
10 0 59735  82980.00000  0    3903384.846    2970433.216    5072074.320
10 0 59735  83160.00000  0    3274052.912    2080562.283    5894018.711
10 0 59735  83340.00000  0    2501557.997    1133432.926    6500092.150
10 0 59735  83520.00000  0    1613087.882     166932.636    6868370.608
10 0 59735  83700.00000  0     640954.899    -781208.180    6985619.204
10 0 59735  83880.00000  0    -378594.601   -1674881.568    6847725.564
10 0 59735  84060.00000  0   -1406733.281   -2480967.139    6459816.474
10 0 59735  84240.00000  0   -2403519.531   -3170547.874    5836061.336
10 0 59735  84420.00000  0   -3329432.466   -3719943.331    4999182.580
10 0 59735  84600.00000  0   -4146942.705   -4111535.371    3979670.308
10 0 59735  84780.00000  0   -4822046.503   -4334346.402    2814703.853
10 0 59735  84960.00000  0   -5325696.370   -4384349.487    1546820.363
10 0 59735  85140.00000  0   -5635069.322   -4264494.536     222364.458
99
